[{"OBJECT_NAME":"STARLINK-3401","OBJECT_ID":"2022-010K","EPOCH":"2026-03-09T22:53:36.128832","MEAN_MOTION":15.08838173,"ECCENTRICITY":0.00012382,"INCLINATION":53.2175,"RA_OF_ASC_NODE":277.937,"ARG_OF_PERICENTER":98.669,"MEAN_ANOMALY":261.4442,"EPHEMERIS_TYPE":0,"CLASSIFICATION_TYPE":"U","NORAD_CAT_ID":51465,"ELEMENT_SET_NO":999,"REV_AT_EPOCH":22736,"BSTAR":4.7994425e-5,"MEAN_MOTION_DOT":4.76e-6,"MEAN_MOTION_DDOT":0},{"OBJECT_NAME":"CZ-6A DEB","OBJECT_ID":"2024-140GN","EPOCH":"2026-03-09T13:15:37.384128","MEAN_MOTION":14.8336719,"ECCENTRICITY":0.01353257,"INCLINATION":88.6725,"RA_OF_ASC_NODE":255.8629,"ARG_OF_PERICENTER":152.9061,"MEAN_ANOMALY":207.9314,"EPHEMERIS_TYPE":0,"CLASSIFICATION_TYPE":"U","NORAD_CAT_ID":60811,"ELEMENT_SET_NO":999,"REV_AT_EPOCH":8463,"BSTAR":0.00091817467,"MEAN_MOTION_DOT":8.879e-5,"MEAN_MOTION_DDOT":0}]
